STARLINK-34404          
1 64442U 25130E   26068.43213869  .00025779  00000+0  87960-3 0  9991
2 64442  53.1602  89.7369 0001427  86.1678 273.9486 15.30195294 40665
2025-313BD              
1 67299U 25313BD  26068.62968741  .00081010  00000+0  27634-2 0  9995
2 67299  97.3970 145.2850 0007287 333.4514  26.6352 15.30002360 10838
